{
  "norad_id": 49075,
  "name": "ONEWEB-0285",
  "history": [
    {
      "epoch": "2026-05-03T16:33:56.189952Z",
      "apogee_km": 1215.0447594031712,
      "perigee_km": 1212.3906469989324,
      "latitude_deg": -5.470156006550499e-05,
      "longitude_deg": -110.56862885110962,
      "height_km": 1216.3696099073595,
      "semi_major_axis_km": 7591.854703201052,
      "eccentricity": 0.0001748,
      "inclination_deg": 87.8984,
      "raan_deg": 359.5058,
      "arg_perigee_deg": 79.7573,
      "mean_anomaly_deg": 280.3752,
      "mean_motion_rev_day": 13.12444449
    }
  ]
}